FENGYUN 1C DEB          
1 30725U 99025ASK 17345.69532231  .00000335  00000-0  22880-3 0  9997
2 30725  99.1901 345.9405 0101572 264.7836 147.3744 14.04511636552205
